STARLINK-35819          
1 66285U 25247W   26116.30607177  .00037940  00000+0  12863-2 0  9998
2 66285  53.1609 330.2856 0001287  82.8322 277.2826 15.30207616 28323
STARLINK-35783          
1 66286U 25247X   26116.30185012  .00022662  00000+0  77495-3 0  9996
2 66286  53.1605 330.2590 0001207  77.6534 282.4601 15.30199659 28320
STARLINK-34884          
1 66287U 25247Y   26116.50002315  .00090155  00000+0  27243-2 0  9990
2 66287  53.1590 329.2481 0000864 112.8521 305.7100 15.33496177  5918
STARLINK-34896          
1 66288U 25247Z   26116.50002315  .00070899  00000+0  20929-2 0  9998
2 66288  53.1589 329.2081 0001069  91.9246 346.8575 15.34352152  5919
STARLINK-35802          
1 66289U 25247AA  26116.50002315  .00098048  00000+0  28853-2 0  9999
2 66289  53.1590 329.1391 0001687  85.6186  28.1202 15.34289944  5919
STARLINK-35799          
1 66290U 25247AB  26116.50002315  .02571490  00000+0  72063-1 0  9991
2 66290  53.1589 329.0908 0000527  44.8288  93.3780 15.32609657  5868
STARLINK-35800          
1 66291U 25247AC  26113.92096868  .00012865  00000+0  44562-3 0  9990
2 66291  53.1578 340.9944 0001271  71.6273 288.4866 15.30209592 28014
STARLINK-35798          
1 66292U 25247AD  26116.50002315  .00074189  00000+0  21889-2 0  9995
2 66292  53.1594 329.0241 0000706  82.5483  89.2274 15.34347076  5869
SEMI-1L                 
1 66294U 25248B   26116.48414200  .00003653  00000+0  17700-3 0  9991
2 66294  45.4013  38.7784 0002067 161.9869 198.1091 15.20469982 26641
LEMUR-2-AFFIE-WAUWIE    
1 66295U 25248C   26116.48131257  .00025354  00000+0  99328-3 0  9998
2 66295  45.3992  34.7594 0008874 152.4312 207.7049 15.25390686 26696
BANDWAGON-4 OBJECT D    
1 66296U 25248D   26116.47427043  .00008327  00000+0  38098-3 0  9997
2 66296  45.4070  37.9617 0004154 138.9904 221.1296 15.21006666 26657
SEMI-1N                 
1 66297U 25248E   26115.48218790  .00005525  00000+0  24855-3 0  9998
2 66297  45.4087  41.5810 0009340 111.1220 249.0666 15.22163927 26529
SEMI-1P                 
1 66298U 25248F   26115.82523592  .00006082  00000+0  29207-3 0  9991
2 66298  45.3822  40.7081 0011701  87.6826 272.5399 15.19719416 26564
FGN-100-D2              
1 66299U 25248G   26116.50811963  .00006190  00000+0  29333-3 0  9990
2 66299  45.4011  38.1337 0004014 109.4721 250.6599 15.20189764 26655
ICEYE-X65               
1 66300U 25248H   26116.48703512  .00007035  00000+0  45933-3 0  9993
2 66300  45.4053  46.2139 0004220 106.8823 253.2522 15.08503469 27718
ICEYE-X66               
1 66301U 25248J   26116.52583118  .00006114  00000+0  40037-3 0  9994
2 66301  45.4021  45.6183 0003820  98.4103 261.7212 15.08592976 27708
ICEYE-X67               
1 66302U 25248K   26116.48329817  .00007177  00000+0  46724-3 0  9993
2 66302  45.4056  45.3816 0005360 104.1137 256.0341 15.08582465 27713
STARCLOUD-1             
1 66303U 25248L   26115.48481746  .00006580  00000+0  30623-3 0  9991
2 66303  45.4033  43.1566 0004441 108.3926 251.7444 15.20729200 26515
BANDWAGON-4 OBJECT M    
1 66304U 25248M   26115.12797921  .00019664  00000+0  75896-3 0  9996
2 66304  45.4187  40.7044 0011435 115.9727 244.2341 15.26004169 25220
BANDWAGON-4 OBJECT N    
1 66305U 25248N   26115.18621091  .00020034  00000+0  76997-3 0  9993
2 66305  45.4225  40.3024 0011909 113.5592 246.6549 15.26130254 24374
BANDWAGON-4 OBJECT P    
1 66306U 25248P   26115.14633420  .00018146  00000+0  70738-3 0  9997
2 66306  45.4008  40.8051 0011141 121.0147 239.1838 15.25723639 26494
BANDWAGON-4 OBJECT Q    
1 66307U 25248Q   26116.46889389  .00019358  00000+0  75662-3 0  9998
2 66307  45.3930  33.7849 0010725 132.9414 227.2376 15.25599417 26703
TOMORROW-S8             
1 66308U 25248R   26115.14059111  .00005441  00000+0  26053-3 0  9993
2 66308  45.3982  45.5671 0003623  87.8976 272.2325 15.20038891 26449
TOMORROW-S9             
1 66309U 25248S   26116.48736758  .00012965  00000+0  60267-3 0  9995
2 66309  45.4049  38.8726 0002410 135.9236 224.1842 15.20032235 26646
CMS-03 (GSAT-7R)        
1 66311U 25249B   26116.50871323 -.00000090  00000+0  00000+0 0  9992
2 66311   0.0089 215.7652 0003676 160.1104  95.7935  1.00272278  1838
YAOGAN-46               
1 66313U 25250A   26116.23161990 -.00000037  00000+0  00000+0 0  9999
2 66313  20.0883   9.7736 0003968  62.2397 297.8155  5.31203690  9330
SENTINEL-1D             
1 66315U 25251A   26116.46411580 -.00000170  00000+0 -26455-4 0  9996
2 66315  98.1832 124.5528 0001291  87.8660 272.2688 14.59197892 25185
QPS-SAR-14 (YACHIHOKO-I)
1 66316U 25252A   26115.17326712  .00005189  00000+0  43296-3 0  9991
2 66316  42.0044  63.1687 0007953 275.2315  84.7603 14.99233433 25554
STARLINK-35442          
1 66319U 25253A   26116.24473578  .00034159  00000+0  12435-2 0  9996
2 66319  43.0014 304.2741 0000768 259.4705 100.6060 15.27622677 27516
STARLINK-34616          
1 66320U 25253B   26116.51769521  .00021315  00000+0  78123-3 0  9991
2 66320  42.9991 302.0147 0001032 237.8523 122.2228 15.27606550 27641
