OBJECT_NAME,OBJECT_ID,EPOCH,MEAN_MOTION,ECCENTRICITY,INCLINATION,RA_OF_ASC_NODE,ARG_OF_PERICENTER,MEAN_ANOMALY,EPHEMERIS_TYPE,CLASSIFICATION_TYPE,NORAD_CAT_ID,ELEMENT_SET_NO,REV_AT_EPOCH,BSTAR,MEAN_MOTION_DOT,MEAN_MOTION_DDOT
STARLINK-35819,2025-247W,2026-04-26T07:20:44.600928,15.30207616,.0001287,53.1609,330.2856,82.8322,277.2826,0,U,66285,999,2832,.12863E-2,.3794E-3,0
STARLINK-35783,2025-247X,2026-04-26T07:14:39.850368,15.30199659,.0001207,53.1605,330.2590,77.6534,282.4601,0,U,66286,999,2832,.77495E-3,.22662E-3,0
STARLINK-34884,2025-247Y,2026-04-26T12:00:02.000160,15.33496177,.0000864,53.1590,329.2481,112.8521,305.7100,0,U,66287,999,591,.27243E-2,.90155E-3,0
STARLINK-34896,2025-247Z,2026-04-26T12:00:02.000160,15.34352152,.0001069,53.1589,329.2081,91.9246,346.8575,0,U,66288,999,591,.20929E-2,.70899E-3,0
STARLINK-35802,2025-247AA,2026-04-26T12:00:02.000160,15.34289944,.0001687,53.1590,329.1391,85.6186,28.1202,0,U,66289,999,591,.28853E-2,.98048E-3,0
STARLINK-35799,2025-247AB,2026-04-26T12:00:02.000160,15.32609657,.0000527,53.1589,329.0908,44.8288,93.3780,0,U,66290,999,586,.72063E-1,.257149E-1,0
STARLINK-35800,2025-247AC,2026-04-23T22:06:11.693952,15.30209592,.0001271,53.1578,340.9944,71.6273,288.4866,0,U,66291,999,2801,.44562E-3,.12865E-3,0
STARLINK-35798,2025-247AD,2026-04-26T12:00:02.000160,15.34347076,.0000706,53.1594,329.0241,82.5483,89.2274,0,U,66292,999,586,.21889E-2,.74189E-3,0
SEMI-1L,2025-248B,2026-04-26T11:37:09.868800,15.20469982,.0002067,45.4013,38.7784,161.9869,198.1091,0,U,66294,999,2664,.177E-3,.3653E-4,0
LEMUR-2-AFFIE-WAUWIE,2025-248C,2026-04-26T11:33:05.406048,15.25390686,.0008874,45.3992,34.7594,152.4312,207.7049,0,U,66295,999,2669,.99328E-3,.25354E-3,0
BANDWAGON-4 OBJECT D,2025-248D,2026-04-26T11:22:56.965152,15.21006666,.0004154,45.4070,37.9617,138.9904,221.1296,0,U,66296,999,2665,.38098E-3,.8327E-4,0
SEMI-1N,2025-248E,2026-04-25T11:34:21.034560,15.22163927,.00093404,45.4087,41.5810,111.1220,249.0666,0,U,66297,999,2652,.24854745E-3,.5525E-4,0
SEMI-1P,2025-248F,2026-04-25T19:48:20.383488,15.19719416,.00117013,45.3822,40.7081,87.6826,272.5399,0,U,66298,999,2656,.2920667E-3,.6082E-4,0
FGN-100-D2,2025-248G,2026-04-26T12:11:41.536032,15.20189764,.0004014,45.4011,38.1337,109.4721,250.6599,0,U,66299,999,2665,.29333E-3,.619E-4,0
ICEYE-X65,2025-248H,2026-04-26T11:41:19.834368,15.08503469,.000422,45.4053,46.2139,106.8823,253.2522,0,U,66300,999,2771,.45933E-3,.7035E-4,0
ICEYE-X66,2025-248J,2026-04-26T12:37:11.813952,15.08592976,.000382,45.4021,45.6183,98.4103,261.7212,0,U,66301,999,2770,.40037E-3,.6114E-4,0
ICEYE-X67,2025-248K,2026-04-26T11:35:56.961888,15.08582465,.000536,45.4056,45.3816,104.1137,256.0341,0,U,66302,999,2771,.46724E-3,.7177E-4,0
STARCLOUD-1,2025-248L,2026-04-25T11:38:08.228544,15.20729200,.0004441,45.4033,43.1566,108.3926,251.7444,0,U,66303,999,2651,.30622529E-3,.658E-4,0
BANDWAGON-4 OBJECT M,2025-248M,2026-04-25T03:04:17.403744,15.26004169,.0011435,45.4187,40.7044,115.9727,244.2341,0,U,66304,999,2522,.7589598E-3,.19664E-3,0
BANDWAGON-4 OBJECT N,2025-248N,2026-04-25T04:28:08.622624,15.26130254,.00119099,45.4225,40.3024,113.5592,246.6549,0,U,66305,999,2437,.76996938E-3,.20034E-3,0
BANDWAGON-4 OBJECT P,2025-248P,2026-04-25T03:30:43.274880,15.25723639,.00111413,45.4008,40.8051,121.0147,239.1838,0,U,66306,999,2649,.70737613E-3,.18146E-3,0
BANDWAGON-4 OBJECT Q,2025-248Q,2026-04-26T11:15:12.432096,15.25599417,.0010725,45.3930,33.7849,132.9414,227.2376,0,U,66307,999,2670,.75662E-3,.19358E-3,0
TOMORROW-S8,2025-248R,2026-04-25T03:22:27.071904,15.20038891,.00036238,45.3982,45.5671,87.8976,272.2325,0,U,66308,999,2644,.26053387E-3,.5441E-4,0
TOMORROW-S9,2025-248S,2026-04-26T11:41:48.558912,15.20032235,.000241,45.4049,38.8726,135.9236,224.1842,0,U,66309,999,2664,.60267E-3,.12965E-3,0
CMS-03 (GSAT-7R),2025-249B,2026-04-26T12:12:32.823072,1.00272278,.0003676,0.0089,215.7652,160.1104,95.7935,0,U,66311,999,183,0,-.9E-6,0
YAOGAN-46,2025-250A,2026-04-26T05:33:31.959360,5.31203690,.0003968,20.0883,9.7736,62.2397,297.8155,0,U,66313,999,933,0,-.37E-6,0
SENTINEL-1D,2025-251A,2026-04-26T11:08:19.605120,14.59197892,.0001291,98.1832,124.5528,87.8660,272.2688,0,U,66315,999,2518,-.26455E-4,-.17E-5,0
QPS-SAR-14 (YACHIHOKO-I),2025-252A,2026-04-25T04:09:30.279168,14.99233433,.00079532,42.0044,63.1687,275.2315,84.7603,0,U,66316,999,2555,.43296096E-3,.5189E-4,0
STARLINK-35442,2025-253A,2026-04-26T05:52:25.171392,15.27622677,.0000768,43.0014,304.2741,259.4705,100.6060,0,U,66319,999,2751,.12435E-2,.34159E-3,0
STARLINK-34616,2025-253B,2026-04-26T12:25:28.866144,15.27606550,.0001032,42.9991,302.0147,237.8523,122.2228,0,U,66320,999,2764,.78123E-3,.21315E-3,0
